{"fetched_at":"2026-07-16T06:42:35.236Z","source":"https://celestrak.org/NORAD/elements/gp.php?GROUP=planet&FORMAT=JSON","constellation":"superdove","records":[{"OBJECT_NAME":"FLOCK 4G-33","OBJECT_ID":"2025-009CE","EPOCH":"2026-07-15T18:41:59.117280","CLASSIFICATION_TYPE":"U","MEAN_MOTION":15.25803284,"ECCENTRICITY":0.00047501,"INCLINATION":97.3946,"RA_OF_ASC_NODE":276.3266,"ARG_OF_PERICENTER":211.5787,"MEAN_ANOMALY":148.5167,"EPHEMERIS_TYPE":0,"NORAD_CAT_ID":62685,"ELEMENT_SET_NO":999,"REV_AT_EPOCH":8316,"BSTAR":0.00013969924,"MEAN_MOTION_DOT":0.00003499,"MEAN_MOTION_DDOT":0},{"OBJECT_NAME":"FLOCK 4H-1","OBJECT_ID":"2025-276AQ","EPOCH":"2026-07-15T14:33:24.111648","CLASSIFICATION_TYPE":"U","MEAN_MOTION":15.20855458,"ECCENTRICITY":0.00020558,"INCLINATION":97.4171,"RA_OF_ASC_NODE":269.8465,"ARG_OF_PERICENTER":173.0311,"MEAN_ANOMALY":187.0953,"EPHEMERIS_TYPE":0,"NORAD_CAT_ID":66704,"ELEMENT_SET_NO":999,"REV_AT_EPOCH":3475,"BSTAR":0.00017649765,"MEAN_MOTION_DOT":0.00003828,"MEAN_MOTION_DDOT":0},{"OBJECT_NAME":"FLOCK 4H-2","OBJECT_ID":"2025-276AR","EPOCH":"2026-07-15T12:20:41.585280","CLASSIFICATION_TYPE":"U","MEAN_MOTION":15.211259,"ECCENTRICITY":0.000151,"INCLINATION":97.4168,"RA_OF_ASC_NODE":269.8046,"ARG_OF_PERICENTER":154.4113,"MEAN_ANOMALY":205.7197,"EPHEMERIS_TYPE":0,"NORAD_CAT_ID":66705,"ELEMENT_SET_NO":999,"REV_AT_EPOCH":3474,"BSTAR":0.00016790442,"MEAN_MOTION_DOT":0.00003668,"MEAN_MOTION_DDOT":0},{"OBJECT_NAME":"FLOCK 4H-3","OBJECT_ID":"2025-276AS","EPOCH":"2026-07-15T21:35:17.603520","CLASSIFICATION_TYPE":"U","MEAN_MOTION":15.20248736,"ECCENTRICITY":0.00024864,"INCLINATION":97.4235,"RA_OF_ASC_NODE":270.1084,"ARG_OF_PERICENTER":244.5428,"MEAN_ANOMALY":115.555,"EPHEMERIS_TYPE":0,"NORAD_CAT_ID":66706,"ELEMENT_SET_NO":999,"REV_AT_EPOCH":3478,"BSTAR":0.00016677992,"MEAN_MOTION_DOT":0.0000355,"MEAN_MOTION_DDOT":0},{"OBJECT_NAME":"FLOCK 4H-4","OBJECT_ID":"2025-276AT","EPOCH":"2026-07-15T17:42:59.339520","CLASSIFICATION_TYPE":"U","MEAN_MOTION":15.20040366,"ECCENTRICITY":0.00031729,"INCLINATION":97.4217,"RA_OF_ASC_NODE":269.8164,"ARG_OF_PERICENTER":251.5566,"MEAN_ANOMALY":108.5325,"EPHEMERIS_TYPE":0,"NORAD_CAT_ID":66707,"ELEMENT_SET_NO":999,"REV_AT_EPOCH":3475,"BSTAR":0.00018918573,"MEAN_MOTION_DOT":0.00004011,"MEAN_MOTION_DDOT":0},{"OBJECT_NAME":"FLOCK 4H-5","OBJECT_ID":"2025-276AU","EPOCH":"2026-07-15T17:31:43.458240","CLASSIFICATION_TYPE":"U","MEAN_MOTION":15.20907083,"ECCENTRICITY":0.00013891,"INCLINATION":97.4169,"RA_OF_ASC_NODE":269.9898,"ARG_OF_PERICENTER":134.82,"MEAN_ANOMALY":225.3149,"EPHEMERIS_TYPE":0,"NORAD_CAT_ID":66708,"ELEMENT_SET_NO":999,"REV_AT_EPOCH":3477,"BSTAR":0.00016112308,"MEAN_MOTION_DOT":0.00003494,"MEAN_MOTION_DDOT":0},{"OBJECT_NAME":"FLOCK 4H-6","OBJECT_ID":"2025-276AV","EPOCH":"2026-07-15T12:19:01.909056","CLASSIFICATION_TYPE":"U","MEAN_MOTION":15.20607635,"ECCENTRICITY":0.00025213,"INCLINATION":97.4222,"RA_OF_ASC_NODE":269.8195,"ARG_OF_PERICENTER":203.2205,"MEAN_ANOMALY":156.8917,"EPHEMERIS_TYPE":0,"NORAD_CAT_ID":66709,"ELEMENT_SET_NO":999,"REV_AT_EPOCH":3473,"BSTAR":0.0001699284,"MEAN_MOTION_DOT":0.00003656,"MEAN_MOTION_DDOT":0},{"OBJECT_NAME":"FLOCK 4H-7","OBJECT_ID":"2025-276AW","EPOCH":"2026-07-15T18:11:58.148160","CLASSIFICATION_TYPE":"U","MEAN_MOTION":15.20383635,"ECCENTRICITY":0.00006752,"INCLINATION":97.418,"RA_OF_ASC_NODE":269.8179,"ARG_OF_PERICENTER":293.2858,"MEAN_ANOMALY":66.8306,"EPHEMERIS_TYPE":0,"NORAD_CAT_ID":66710,"ELEMENT_SET_NO":999,"REV_AT_EPOCH":3476,"BSTAR":0.00017752249,"MEAN_MOTION_DOT":0.00003798,"MEAN_MOTION_DDOT":0},{"OBJECT_NAME":"FLOCK 4H-8","OBJECT_ID":"2025-276AX","EPOCH":"2026-07-15T17:58:47.844768","CLASSIFICATION_TYPE":"U","MEAN_MOTION":15.20492458,"ECCENTRICITY":0.00018939,"INCLINATION":97.4218,"RA_OF_ASC_NODE":269.959,"ARG_OF_PERICENTER":268.6565,"MEAN_ANOMALY":91.4454,"EPHEMERIS_TYPE":0,"NORAD_CAT_ID":66711,"ELEMENT_SET_NO":999,"REV_AT_EPOCH":3476,"BSTAR":0.00019374627,"MEAN_MOTION_DOT":0.00004164,"MEAN_MOTION_DDOT":0},{"OBJECT_NAME":"FLOCK 4H-9","OBJECT_ID":"2025-276AY","EPOCH":"2026-07-15T18:18:31.197312","CLASSIFICATION_TYPE":"U","MEAN_MOTION":15.20793231,"ECCENTRICITY":0.00025451,"INCLINATION":97.4209,"RA_OF_ASC_NODE":270.0672,"ARG_OF_PERICENTER":211.7657,"MEAN_ANOMALY":148.3426,"EPHEMERIS_TYPE":0,"NORAD_CAT_ID":66712,"ELEMENT_SET_NO":999,"REV_AT_EPOCH":3477,"BSTAR":0.00019692055,"MEAN_MOTION_DOT":0.00004271,"MEAN_MOTION_DDOT":0},{"OBJECT_NAME":"FLOCK 4H-10","OBJECT_ID":"2025-276AZ","EPOCH":"2026-07-15T22:04:21.118368","CLASSIFICATION_TYPE":"U","MEAN_MOTION":15.20168617,"ECCENTRICITY":0.00029823,"INCLINATION":97.4184,"RA_OF_ASC_NODE":269.9302,"ARG_OF_PERICENTER":251.1988,"MEAN_ANOMALY":108.8924,"EPHEMERIS_TYPE":0,"NORAD_CAT_ID":66713,"ELEMENT_SET_NO":999,"REV_AT_EPOCH":3478,"BSTAR":0.00016322986,"MEAN_MOTION_DOT":0.00003464,"MEAN_MOTION_DDOT":0},{"OBJECT_NAME":"FLOCK 4H-11","OBJECT_ID":"2025-276BA","EPOCH":"2026-07-15T17:54:32.049792","CLASSIFICATION_TYPE":"U","MEAN_MOTION":15.23337831,"ECCENTRICITY":0.00015051,"INCLINATION":97.4192,"RA_OF_ASC_NODE":270.3556,"ARG_OF_PERICENTER":241.4758,"MEAN_ANOMALY":118.6327,"EPHEMERIS_TYPE":0,"NORAD_CAT_ID":66714,"ELEMENT_SET_NO":999,"REV_AT_EPOCH":3479,"BSTAR":0.00036328632,"MEAN_MOTION_DOT":0.00008561,"MEAN_MOTION_DDOT":0},{"OBJECT_NAME":"FLOCK 4H-12","OBJECT_ID":"2025-276BB","EPOCH":"2026-07-15T17:59:51.429120","CLASSIFICATION_TYPE":"U","MEAN_MOTION":15.20819583,"ECCENTRICITY":0.00019882,"INCLINATION":97.4183,"RA_OF_ASC_NODE":269.9905,"ARG_OF_PERICENTER":179.0436,"MEAN_ANOMALY":181.0803,"EPHEMERIS_TYPE":0,"NORAD_CAT_ID":66715,"ELEMENT_SET_NO":999,"REV_AT_EPOCH":3508,"BSTAR":0.00017768816,"MEAN_MOTION_DOT":0.0000385,"MEAN_MOTION_DDOT":0},{"OBJECT_NAME":"FLOCK 4H-13","OBJECT_ID":"2025-276BC","EPOCH":"2026-07-15T04:39:33.611328","CLASSIFICATION_TYPE":"U","MEAN_MOTION":15.20915991,"ECCENTRICITY":0.00019093,"INCLINATION":97.4216,"RA_OF_ASC_NODE":269.6166,"ARG_OF_PERICENTER":143.7483,"MEAN_ANOMALY":216.3883,"EPHEMERIS_TYPE":0,"NORAD_CAT_ID":66716,"ELEMENT_SET_NO":999,"REV_AT_EPOCH":3469,"BSTAR":0.00016342293,"MEAN_MOTION_DOT":0.00003546,"MEAN_MOTION_DDOT":0},{"OBJECT_NAME":"FLOCK 4H-14","OBJECT_ID":"2025-276BD","EPOCH":"2026-07-15T17:55:01.598592","CLASSIFICATION_TYPE":"U","MEAN_MOTION":15.21370125,"ECCENTRICITY":0.00018199,"INCLINATION":97.42,"RA_OF_ASC_NODE":270.2076,"ARG_OF_PERICENTER":141.6763,"MEAN_ANOMALY":218.4602,"EPHEMERIS_TYPE":0,"NORAD_CAT_ID":66717,"ELEMENT_SET_NO":999,"REV_AT_EPOCH":3403,"BSTAR":0.00019175052,"MEAN_MOTION_DOT":0.00004229,"MEAN_MOTION_DDOT":0},{"OBJECT_NAME":"FLOCK 4H-15","OBJECT_ID":"2025-276BE","EPOCH":"2026-07-15T18:09:02.706912","CLASSIFICATION_TYPE":"U","MEAN_MOTION":15.19887366,"ECCENTRICITY":0.00026502,"INCLINATION":97.4214,"RA_OF_ASC_NODE":269.7748,"ARG_OF_PERICENTER":272.5542,"MEAN_ANOMALY":87.539,"EPHEMERIS_TYPE":0,"NORAD_CAT_ID":66718,"ELEMENT_SET_NO":999,"REV_AT_EPOCH":3475,"BSTAR":0.00019154554,"MEAN_MOTION_DOT":0.00004044,"MEAN_MOTION_DDOT":0}]}
