FLOCK 4G-33             
1 62685U 25009CE  26196.77915645  .00003499  00000+0  13970-3 0  9998
2 62685  97.3946 276.3266 0004750 211.5787 148.5167 15.25803284 83164
FLOCK 4H-1              
1 66704U 25276AQ  26196.60652907  .00003828  00000+0  17650-3 0  9996
2 66704  97.4171 269.8465 0002055 173.0311 187.0953 15.20855458 34757
FLOCK 4H-2              
1 66705U 25276AR  26196.51437020  .00003668  00000+0  16790-3 0  9990
2 66705  97.4168 269.8046 0001510 154.4113 205.7197 15.21125900 34747
FLOCK 4H-3              
1 66706U 25276AS  26196.89950930  .00003550  00000+0  16678-3 0  9997
2 66706  97.4235 270.1084 0002486 244.5428 115.5550 15.20248736 34780
FLOCK 4H-4              
1 66707U 25276AT  26196.73818680  .00004011  00000+0  18919-3 0  9999
2 66707  97.4217 269.8164 0003172 251.5566 108.5325 15.20040366 34757
FLOCK 4H-5              
1 66708U 25276AU  26196.73036410  .00003494  00000+0  16112-3 0  9990
2 66708  97.4169 269.9898 0001389 134.8200 225.3149 15.20907083 34777
FLOCK 4H-6              
1 66709U 25276AV  26196.51321654  .00003656  00000+0  16993-3 0  9991
2 66709  97.4222 269.8195 0002521 203.2205 156.8917 15.20607635 34739
FLOCK 4H-7              
1 66710U 25276AW  26196.75831190  .00003798  00000+0  17752-3 0  9991
2 66710  97.4180 269.8179 0000675 293.2858  66.8306 15.20383635 34763
FLOCK 4H-8              
1 66711U 25276AX  26196.74916487  .00004164  00000+0  19375-3 0  9995
2 66711  97.4218 269.9590 0001893 268.6565  91.4454 15.20492458 34760
FLOCK 4H-9              
1 66712U 25276AY  26196.76286108  .00004271  00000+0  19692-3 0  9999
2 66712  97.4209 270.0672 0002545 211.7657 148.3426 15.20793231 34776
FLOCK 4H-10             
1 66713U 25276AZ  26196.91968887  .00003464  00000+0  16323-3 0  9999
2 66713  97.4184 269.9302 0002982 251.1988 108.8924 15.20168617 34785
FLOCK 4H-11             
1 66714U 25276BA  26196.74620428  .00008561  00000+0  36329-3 0  9998
2 66714  97.4192 270.3556 0001505 241.4758 118.6327 15.23337831 34795
FLOCK 4H-12             
1 66715U 25276BB  26196.74990080  .00003850  00000+0  17769-3 0  9996
2 66715  97.4183 269.9905 0001988 179.0436 181.0803 15.20819583 35084
FLOCK 4H-13             
1 66716U 25276BC  26196.19413902  .00003546  00000+0  16342-3 0  9997
2 66716  97.4216 269.6166 0001909 143.7483 216.3883 15.20915991 34697
FLOCK 4H-14             
1 66717U 25276BD  26196.74654628  .00004229  00000+0  19175-3 0  9997
2 66717  97.4200 270.2076 0001819 141.6763 218.4602 15.21370125 34032
FLOCK 4H-15             
1 66718U 25276BE  26196.75628133  .00004044  00000+0  19155-3 0  9994
2 66718  97.4214 269.7748 0002650 272.5542  87.5390 15.19887366 34755
